{"type": "FeatureCollection", "features": [ {"type": "Feature", "properties": {"norad_id": 35139, "name": "FENGYUN 1C DEB", "group": "fengyun-1c-debris", "lat": 23.474535317938578, "lon": 173.82563916081182, "alt_km": 862.7376463985147, "timestamp": "2025-12-10T18:57:00.352763+00:00", "meta": {"OBJECT_NAME": "FENGYUN 1C DEB", "OBJECT_ID": "1999-025DLT", "EPOCH": "2025-11-29T06:46:18.583392", "MEAN_MOTION": 14.21054019, "ECCENTRICITY": 0.00685814, "INCLINATION": 98.5841, "RA_OF_ASC_NODE": 338.8823, "ARG_OF_PERICENTER": 336.9878, "MEAN_ANOMALY": 22.8231, "EPHEMERIS_TYPE": 0, "CLASSIFICATION_TYPE": "U", "NORAD_CAT_ID": 35139, "ELEMENT_SET_NO": 999, "REV_AT_EPOCH": 63962, "BSTAR": 0.00042081079, "MEAN_MOTION_DOT": 8.92e-06, "MEAN_MOTION_DDOT": 0}, "tle": {"line1": "1 35139U 99025DLT 25333.28215953  .00000892  00000+0  42081-3 0  9993", "line2": "2 35139  98.5841 338.8823 0068581 336.9878  22.8231 14.21054019639626"}}, "geometry": {"type": "Point", "coordinates": [173.82563916081182, 23.474535317938578]}}, {"type": "Feature", "properties": {"norad_id": 35140, "name": "FENGYUN 1C DEB", "group": "fengyun-1c-debris", "lat": -58.29840910420672, "lon": 132.32635777485172, "alt_km": 833.0901402142999, "timestamp": "2025-12-10T18:57:00.352773+00:00", "meta": {"OBJECT_NAME": "FENGYUN 1C DEB", "OBJECT_ID": "1999-025DLU", "EPOCH": "2025-12-10T04:17:21.591168", "MEAN_MOTION": 14.21339397, "ECCENTRICITY": 0.02908435, "INCLINATION": 98.4462, "RA_OF_ASC_NODE": 325.661, "ARG_OF_PERICENTER": 334.1301, "MEAN_ANOMALY": 24.5574, "EPHEMERIS_TYPE": 0, "CLASSIFICATION_TYPE": "U", "NORAD_CAT_ID": 35140, "ELEMENT_SET_NO": 999, "REV_AT_EPOCH": 87242, "BSTAR": 0.00038598155, "MEAN_MOTION_DOT": 1.243e-05, "MEAN_MOTION_DDOT": 0}, "tle": {"line1": "1 35140U 99025DLU 25344.17872212  .00001243  00000+0  38598-3 0  9991", "line2": "2 35140  98.4462 325.6610 0290843 334.1301  24.5574 14.21339397872424"}}, "geometry": {"type": "Point", "coordinates": [132.32635777485172, -58.29840910420672]}}, {"type": "Feature", "properties": {"norad_id": 35142, "name": "FENGYUN 1C DEB", "group": "fengyun-1c-debris", "lat": 31.746558870888922, "lon": -28.660578418501267, "alt_km": 1002.8897062251172, "timestamp": "2025-12-10T18:57:00.352783+00:00", "meta": {"OBJECT_NAME": "FENGYUN 1C DEB", "OBJECT_ID": "1999-025DLW", "EPOCH": "2025-12-09T05:05:48.253920", "MEAN_MOTION": 13.90504392, "ECCENTRICITY": 0.0107529, "INCLINATION": 99.0435, "RA_OF_ASC_NODE": 335.4601, "ARG_OF_PERICENTER": 223.7341, "MEAN_ANOMALY": 197.3877, "EPHEMERIS_TYPE": 0, "CLASSIFICATION_TYPE": "U", "NORAD_CAT_ID": 35142, "ELEMENT_SET_NO": 999, "REV_AT_EPOCH": 85640, "BSTAR": 0.00033873, "MEAN_MOTION_DOT": 3.98e-06, "MEAN_MOTION_DDOT": 0}, "tle": {"line1": "1 35142U 99025DLW 25343.21236405  .00000398  00000+0  33873-3 0  9996", "line2": "2 35142  99.0435 335.4601 0107529 223.7341 197.3877 13.90504392856406"}}, "geometry": {"type": "Point", "coordinates": [-28.660578418501267, 31.746558870888922]}}, {"type": "Feature", "properties": {"norad_id": 35144, "name": "FENGYUN 1C DEB", "group": "fengyun-1c-debris", "lat": 8.092542301967033, "lon": -78.70659557800721, "alt_km": 715.8085421347587, "timestamp": "2025-12-10T18:57:00.352793+00:00", "meta": {"OBJECT_NAME": "FENGYUN 1C DEB", "OBJECT_ID": "1999-025DLY", "EPOCH": "2025-12-10T06:38:44.687040", "MEAN_MOTION": 14.59100202, "ECCENTRICITY": 0.0026484, "INCLINATION": 98.6988, "RA_OF_ASC_NODE": 99.5092, "ARG_OF_PERICENTER": 10.0406, "MEAN_ANOMALY": 350.1315, "EPHEMERIS_TYPE": 0, "CLASSIFICATION_TYPE": "U", "NORAD_CAT_ID": 35144, "ELEMENT_SET_NO": 999, "REV_AT_EPOCH": 65177, "BSTAR": 0.0039597, "MEAN_MOTION_DOT": 0.00018719, "MEAN_MOTION_DDOT": 0}, "tle": {"line1": "1 35144U 99025DLY 25344.27690610  .00018719  00000+0  39597-2 0  9991", "line2": "2 35144  98.6988  99.5092 0026484  10.0406 350.1315 14.59100202651774"}}, "geometry": {"type": "Point", "coordinates": [-78.70659557800721, 8.092542301967033]}}, {"type": "Feature", "properties": {"norad_id": 35147, "name": "FENGYUN 1C DEB", "group": "fengyun-1c-debris", "lat": -73.17755207144073, "lon": -155.8241380826971, "alt_km": 642.9158519761613, "timestamp": "2025-12-10T18:57:00.352803+00:00", "meta": {"OBJECT_NAME": "FENGYUN 1C DEB", "OBJECT_ID": "1999-025DMB", "EPOCH": "2025-12-08T03:53:17.840256", "MEAN_MOTION": 14.74032065, "ECCENTRICITY": 0.00276083, "INCLINATION": 99.4865, "RA_OF_ASC_NODE": 54.6818, "ARG_OF_PERICENTER": 212.762, "MEAN_ANOMALY": 147.1872, "EPHEMERIS_TYPE": 0, "CLASSIFICATION_TYPE": "U", "NORAD_CAT_ID": 35147, "ELEMENT_SET_NO": 999, "REV_AT_EPOCH": 74237, "BSTAR": 0.0037161375, "MEAN_MOTION_DOT": 0.00024612, "MEAN_MOTION_DDOT": 0}, "tle": {"line1": "1 35147U 99025DMB 25342.16201204  .00024612  00000+0  37161-2 0  9991", "line2": "2 35147  99.4865  54.6818 0027608 212.7620 147.1872 14.74032065742373"}}, "geometry": {"type": "Point", "coordinates": [-155.8241380826971, -73.17755207144073]}}, {"type": "Feature", "properties": {"norad_id": 35152, "name": "FENGYUN 1C DEB", "group": "fengyun-1c-debris", "lat": -48.25580241686009, "lon": 178.60707000104392, "alt_km": 931.014249091716, "timestamp": "2025-12-10T18:57:00.352814+00:00", "meta": {"OBJECT_NAME": "FENGYUN 1C DEB", "OBJECT_ID": "1999-025DMG", "EPOCH": "2025-12-09T06:32:50.767584", "MEAN_MOTION": 13.76426124, "ECCENTRICITY": 0.019481, "INCLINATION": 99.8191, "RA_OF_ASC_NODE": 165.8523, "ARG_OF_PERICENTER": 24.4192, "MEAN_ANOMALY": 336.6036, "EPHEMERIS_TYPE": 0, "CLASSIFICATION_TYPE": "U", "NORAD_CAT_ID": 35152, "ELEMENT_SET_NO": 999, "REV_AT_EPOCH": 62145, "BSTAR": 0.0008876, "MEAN_MOTION_DOT": 9.5e-06, "MEAN_MOTION_DDOT": 0}, "tle": {"line1": "1 35152U 99025DMG 25343.27280981  .00000950  00000+0  88760-3 0  9990", "line2": "2 35152  99.8191 165.8523 0194810  24.4192 336.6036 13.76426124621451"}}, "geometry": {"type": "Point", "coordinates": [178.60707000104392, -48.25580241686009]}}, {"type": "Feature", "properties": {"norad_id": 35153, "name": "FENGYUN 1C DEB", "group": "fengyun-1c-debris", "lat": -31.227424733373834, "lon": 50.94975251703229, "alt_km": 718.138599696028, "timestamp": "2025-12-10T18:57:00.352824+00:00", "meta": {"OBJECT_NAME": "FENGYUN 1C DEB", "OBJECT_ID": "1999-025DMH", "EPOCH": "2025-12-09T11:02:56.518368", "MEAN_MOTION": 14.73706158, "ECCENTRICITY": 0.01712528, "INCLINATION": 98.902, "RA_OF_ASC_NODE": 234.9442, "ARG_OF_PERICENTER": 93.3589, "MEAN_ANOMALY": 268.7223, "EPHEMERIS_TYPE": 0, "CLASSIFICATION_TYPE": "U", "NORAD_CAT_ID": 35153, "ELEMENT_SET_NO": 999, "REV_AT_EPOCH": 97169, "BSTAR": 0.00054177343, "MEAN_MOTION_DOT": 4.406e-05, "MEAN_MOTION_DDOT": 0}, "tle": {"line1": "1 35153U 99025DMH 25343.46037637  .00004406  00000+0  54177-3 0  9995", "line2": "2 35153  98.9020 234.9442 0171252  93.3589 268.7223 14.73706158971694"}}, "geometry": {"type": "Point", "coordinates": [50.94975251703229, -31.227424733373834]}}, {"type": "Feature", "properties": {"norad_id": 35154, "name": "FENGYUN 1C DEB", "group": "fengyun-1c-debris", "lat": -0.7420066247275616, "lon": -73.97717135528696, "alt_km": 918.5848098242877, "timestamp": "2025-12-10T18:57:00.352833+00:00", "meta": {"OBJECT_NAME": "FENGYUN 1C DEB", "OBJECT_ID": "1999-025DMJ", "EPOCH": "2025-12-06T14:15:56.224800", "MEAN_MOTION": 14.18884771, "ECCENTRICITY": 0.01795392, "INCLINATION": 99.4212, "RA_OF_ASC_NODE": 101.6887, "ARG_OF_PERICENTER": 59.7259, "MEAN_ANOMALY": 302.1547, "EPHEMERIS_TYPE": 0, "CLASSIFICATION_TYPE": "U", "NORAD_CAT_ID": 35154, "ELEMENT_SET_NO": 999, "REV_AT_EPOCH": 64490, "BSTAR": 0.0005498594, "MEAN_MOTION_DOT": 1.295e-05, "MEAN_MOTION_DDOT": 0}, "tle": {"line1": "1 35154U 99025DMJ 25340.59440075  .00001295  00000+0  54986-3 0  9992", "line2": "2 35154  99.4212 101.6887 0179539  59.7259 302.1547 14.18884771644903"}}, "geometry": {"type": "Point", "coordinates": [-73.97717135528696, -0.7420066247275616]}}, {"type": "Feature", "properties": {"norad_id": 35155, "name": "FENGYUN 1C DEB", "group": "fengyun-1c-debris", "lat": -62.08583518958466, "lon": 12.93396846338328, "alt_km": 849.6311292238424, "timestamp": "2025-12-10T18:57:00.352843+00:00", "meta": {"OBJECT_NAME": "FENGYUN 1C DEB", "OBJECT_ID": "1999-025DMK", "EPOCH": "2025-12-01T18:40:23.892384", "MEAN_MOTION": 14.19237116, "ECCENTRICITY": 0.00262936, "INCLINATION": 98.5005, "RA_OF_ASC_NODE": 347.8913, "ARG_OF_PERICENTER": 103.4458, "MEAN_ANOMALY": 256.9651, "EPHEMERIS_TYPE": 0, "CLASSIFICATION_TYPE": "U", "NORAD_CAT_ID": 35155, "ELEMENT_SET_NO": 999, "REV_AT_EPOCH": 72558, "BSTAR": 0.00064940785, "MEAN_MOTION_DOT": 1.325e-05, "MEAN_MOTION_DDOT": 0}, "tle": {"line1": "1 35155U 99025DMK 25335.77805431  .00001325  00000+0  64941-3 0  9994", "line2": "2 35155  98.5005 347.8913 0026293 103.4458 256.9651 14.19237116725586"}}, "geometry": {"type": "Point", "coordinates": [12.93396846338328, -62.08583518958466]}}, {"type": "Feature", "properties": {"norad_id": 35156, "name": "FENGYUN 1C DEB", "group": "fengyun-1c-debris", "lat": 74.89175239253363, "lon": -63.52587324923138, "alt_km": 843.5029570553279, "timestamp": "2025-12-10T18:57:00.352853+00:00", "meta": {"OBJECT_NAME": "FENGYUN 1C DEB", "OBJECT_ID": "1999-025DML", "EPOCH": "2025-12-03T09:32:20.618304", "MEAN_MOTION": 14.10610073, "ECCENTRICITY": 0.0036093, "INCLINATION": 98.7501, "RA_OF_ASC_NODE": 324.0617, "ARG_OF_PERICENTER": 174.1914, "MEAN_ANOMALY": 185.9683, "EPHEMERIS_TYPE": 0, "CLASSIFICATION_TYPE": "U", "NORAD_CAT_ID": 35156, "ELEMENT_SET_NO": 999, "REV_AT_EPOCH": 63912, "BSTAR": 0.00049263017, "MEAN_MOTION_DOT": 8.41e-06, "MEAN_MOTION_DDOT": 0}, "tle": {"line1": "1 35156U 99025DML 25337.39746086  .00000841  00000+0  49263-3 0  9997", "line2": "2 35156  98.7501 324.0617 0036093 174.1914 185.9683 14.10610073639127"}}, "geometry": {"type": "Point", "coordinates": [-63.52587324923138, 74.89175239253363]}}]}